{
"type": "FeatureCollection",
"name": "labeled_buildings",
"crs": { "type": "name", "properties": { "name": "urn:ogc:def:crs:OGC:1.3:CRS84" } },
"features": [
{ "type": "Feature", "properties": { "loc_id": 0, "occupancy": "uncertain" }, "geometry": { "type": "Polygon", "coordinates": [ [ [ -83.2070197, 42.3747776 ], [ -83.2068824, 42.3747803 ], [ -83.2068799, 42.3747105 ], [ -83.2070172, 42.3747078 ], [ -83.2070197, 42.3747776 ] ] ] } },
{ "type": "Feature", "properties": { "loc_id": 1, "occupancy": "uncertain" }, "geometry": { "type": "Polygon", "coordinates": [ [ [ -83.2070177, 42.3749007 ], [ -83.2068789, 42.3749034 ], [ -83.2068762, 42.3748277 ], [ -83.2070149, 42.3748249 ], [ -83.2070177, 42.3749007 ] ] ] } },
{ "type": "Feature", "properties": { "loc_id": 2, "occupancy": "uncertain" }, "geometry": { "type": "Polygon", "coordinates": [ [ [ -83.2070361, 42.3749916 ], [ -83.2068997, 42.3749943 ], [ -83.2068973, 42.3749287 ], [ -83.2070338, 42.374926 ], [ -83.2070361, 42.3749916 ] ] ] } },
{ "type": "Feature", "properties": { "loc_id": 3, "occupancy": "uncertain" }, "geometry": { "type": "Polygon", "coordinates": [ [ [ -83.2070328, 42.3750902 ], [ -83.2069122, 42.3750926 ], [ -83.2069097, 42.3750238 ], [ -83.2070303, 42.3750215 ], [ -83.2070328, 42.3750902 ] ] ] } },
{ "type": "Feature", "properties": { "loc_id": 4, "occupancy": "uncertain" }, "geometry": { "type": "Polygon", "coordinates": [ [ [ -83.2070338, 42.3751392 ], [ -83.2070626, 42.3751386 ], [ -83.2070636, 42.3751675 ], [ -83.2070348, 42.375168 ], [ -83.2070354, 42.3751856 ], [ -83.2069048, 42.3751881 ], [ -83.2069023, 42.3751187 ], [ -83.2070329, 42.3751161 ], [ -83.2070338, 42.3751392 ] ] ] } },
{ "type": "Feature", "properties": { "loc_id": 5, "occupancy": "uncertain" }, "geometry": { "type": "Polygon", "coordinates": [ [ [ -83.2070422, 42.3752444 ], [ -83.2070609, 42.375244 ], [ -83.2070622, 42.3752808 ], [ -83.2069085, 42.3752838 ], [ -83.206906, 42.3752148 ], [ -83.207041, 42.3752121 ], [ -83.2070422, 42.3752444 ] ] ] } },
{ "type": "Feature", "properties": { "loc_id": 6, "occupancy": "uncertain" }, "geometry": { "type": "Polygon", "coordinates": [ [ [ -83.207051, 42.3753409 ], [ -83.2070525, 42.3753837 ], [ -83.206915, 42.3753864 ], [ -83.2069124, 42.3753131 ], [ -83.2070796, 42.3753098 ], [ -83.2070807, 42.3753404 ], [ -83.207051, 42.3753409 ] ] ] } },
{ "type": "Feature", "properties": { "loc_id": 7, "occupancy": "uncertain" }, "geometry": { "type": "Polygon", "coordinates": [ [ [ -83.207652, 42.3753716 ], [ -83.2074902, 42.3753748 ], [ -83.2074877, 42.3753072 ], [ -83.2076495, 42.375304 ], [ -83.207652, 42.3753716 ] ] ] } },
{ "type": "Feature", "properties": { "loc_id": 8, "occupancy": "occupied" }, "geometry": { "type": "Polygon", "coordinates": [ [ [ -83.2076098, 42.3752804 ], [ -83.2075089, 42.3752824 ], [ -83.2075062, 42.3752078 ], [ -83.207607, 42.3752058 ], [ -83.2076098, 42.3752804 ] ] ] } },
{ "type": "Feature", "properties": { "loc_id": 9, "occupancy": "uncertain" }, "geometry": { "type": "Polygon", "coordinates": [ [ [ -83.2076493, 42.3751734 ], [ -83.2075259, 42.3751759 ], [ -83.2075252, 42.3751565 ], [ -83.2075127, 42.3751567 ], [ -83.2075115, 42.3751246 ], [ -83.207524, 42.3751244 ], [ -83.2075233, 42.3751033 ], [ -83.2076467, 42.3751009 ], [ -83.2076493, 42.3751734 ] ] ] } },
{ "type": "Feature", "properties": { "loc_id": 10, "occupancy": "uncertain" }, "geometry": { "type": "Polygon", "coordinates": [ [ [ -83.2076363, 42.3750771 ], [ -83.2075098, 42.3750796 ], [ -83.2075072, 42.3750085 ], [ -83.2076337, 42.3750059 ], [ -83.2076363, 42.3750771 ] ] ] } },
{ "type": "Feature", "properties": { "loc_id": 11, "occupancy": "uncertain" }, "geometry": { "type": "Polygon", "coordinates": [ [ [ -83.2076363, 42.3749807 ], [ -83.2075091, 42.3749832 ], [ -83.2075065, 42.3749121 ], [ -83.2076337, 42.3749096 ], [ -83.2076363, 42.3749807 ] ] ] } },
{ "type": "Feature", "properties": { "loc_id": 12, "occupancy": "uncertain" }, "geometry": { "type": "Polygon", "coordinates": [ [ [ -83.2075028, 42.3748096 ], [ -83.2076074, 42.3748075 ], [ -83.2076101, 42.3748821 ], [ -83.2075055, 42.3748842 ], [ -83.2075028, 42.3748096 ] ] ] } },
{ "type": "Feature", "properties": { "loc_id": 13, "occupancy": "uncertain" }, "geometry": { "type": "Polygon", "coordinates": [ [ [ -83.2076567, 42.3747714 ], [ -83.2075011, 42.3747745 ], [ -83.2074985, 42.3747031 ], [ -83.2076541, 42.3747 ], [ -83.2076567, 42.3747714 ] ] ] } }
]
}
